[
    {
        "Altitude(m)": 605459.0022691218,
        "Argument of Periapsis(deg)": 0.0,
        "Eccentricity": 0.0,
        "Inclination(deg)": 60.0,
        "Latitude(deg)": 27.988127864765314,
        "Longitude(deg)": -92.20140916824325,
        "Mean Anomaly(deg)": -327.2727,
        "RAAN(deg)": 350.0,
        "Satellite Name": "Test1 1542",
        "Satellite Number": 1542,
        "Semi-Major Axis(m)": 6980739.136638005,
        "Time(s)": 0
    },
    {
        "Altitude(m)": 605535.7929492958,
        "Argument of Periapsis(deg)": 0.00010418945913296404,
        "Eccentricity": 0.0,
        "Inclination(deg)": 60.0,
        "Latitude(deg)": 28.501257311686324,
        "Longitude(deg)": -91.84446424791794,
        "Mean Anomaly(deg)": -326.65259385453817,
        "RAAN(deg)": 349.99957995086027,
        "Satellite Name": "Test1 1542",
        "Satellite Number": 1542,
        "Semi-Major Axis(m)": 6980739.136638005,
        "Time(s)": 10
    }
]